[{"OBJECT_NAME":"TRANSPORTER-10 OBJECT AW","OBJECT_ID":"2024-043AW","EPOCH":"2026-03-09T22:04:49.515456","MEAN_MOTION":15.70494371,"ECCENTRICITY":0.00039773,"INCLINATION":97.534,"RA_OF_ASC_NODE":220.1774,"ARG_OF_PERICENTER":196.6835,"MEAN_ANOMALY":163.4297,"EPHEMERIS_TYPE":0,"CLASSIFICATION_TYPE":"U","NORAD_CAT_ID":59142,"ELEMENT_SET_NO":999,"REV_AT_EPOCH":11287,"BSTAR":0.00092189633,"MEAN_MOTION_DOT":0.00114165,"MEAN_MOTION_DDOT":0},{"OBJECT_NAME":"STARLINK-11136 [DTC]","OBJECT_ID":"2024-141K","EPOCH":"2026-03-09T10:49:16.667904","MEAN_MOTION":15.69714883,"ECCENTRICITY":0.00013341,"INCLINATION":53.1591,"RA_OF_ASC_NODE":87.5691,"ARG_OF_PERICENTER":57.3921,"MEAN_ANOMALY":302.7226,"EPHEMERIS_TYPE":0,"CLASSIFICATION_TYPE":"U","NORAD_CAT_ID":60407,"ELEMENT_SET_NO":999,"REV_AT_EPOCH":9165,"BSTAR":1.4374134e-5,"MEAN_MOTION_DOT":1.153e-5,"MEAN_MOTION_DDOT":0}]
